STARLINK-36181          
1 68047U 26041H   26064.91745501 -.00352182  56519-4 -55578-3 0  9994
2 68047  53.1613  81.6280 0002504 341.9342  18.1601 16.03005981   615
STARLINK-36318          
1 68048U 26041J   26064.85484931  .00379440  75729-4  58630-3 0  9995
2 68048  53.1609  81.9490 0001930 216.4713 143.6188 16.03695095   601
STARLINK-36885          
1 68049U 26041K   26065.04160810 -.00268809  38022-4 -41588-3 0  9992
2 68049  53.1606  80.9788 0001121 111.7318 248.3834 16.03284822   634
STARLINK-36945          
1 68050U 26041L   26065.04175692 -.00294029  43116-4 -45943-3 0  9990
2 68050  53.1607  80.9796 0000747 123.3618 236.7486 16.03140488   634
STARLINK-35911          
1 68051U 26041M   26065.04145381 -.00294472  43323-4 -45295-3 0  9995
2 68051  53.1606  80.9777 0000775 102.2522 257.8597 16.03403245   634
STARLINK-35808          
1 68052U 26041N   26065.04131498 -.00313842  47634-4 -48017-3 0  9997
2 68052  53.1608  80.9771 0001752 134.1273 225.9904 16.03503394   638
STARLINK-36919          
1 68053U 26041P   26065.04116541 -.00286719  41780-4 -43492-3 0  9990
2 68053  53.1609  80.9760 0001531 134.2770 225.8388 16.03627286   638
STARLINK-36924          
1 68054U 26041Q   26064.91624559  .00130205  18871-4  19705-3 0  9990
2 68054  53.1613  81.6202 0003981 185.7535 174.3453 16.04306352   612
STARLINK-35998          
1 68055U 26041R   26065.04103570 -.00295535  43702-4 -44523-3 0  9998
2 68055  53.1607  80.9748 0000892 123.1638 236.9481 16.03749796   631
STARLINK-36845          
1 68056U 26041S   26064.97844092 -.00307885  46533-4 -45642-3 0  9991
2 68056  53.1613  81.2963 0003426 344.2338  15.8587 16.04013847   623
STARLINK-36954          
1 68057U 26041T   26064.97831510 -.00343211  54942-4 -50560-3 0  9994
2 68057  53.1613  81.2955 0004129 349.7622  10.3326 16.04134131   623
STARLINK-36899          
1 68058U 26041U   26065.04049693  .00079229  14224-4  12233-3 0  9994
2 68058  53.1610  80.9714 0004250 347.8885  12.2045 16.04255728   631
STARLINK-36917          
1 68059U 26041V   26064.97804624 -.00307785  46695-4 -44575-3 0  9993
2 68059  53.1613  81.2940 0003337 352.4066   7.6916 16.04399058   627
STARLINK-36959          
1 68060U 26041W   26065.04022064 -.00096272  14821-4 -13521-3 0  9993
2 68060  53.1607  80.9694 0001025 130.1464 229.9659 16.04473174   635
STARLINK-36915          
1 68061U 26041X   26065.04008285 -.00048608  12219-4 -65164-4 0  9993
2 68061  53.1605  80.9687 0001800 129.5685 230.5507 16.04594639   634
STARLINK-36952          
1 68062U 26041Y   26065.03993679 -.00251472  35185-4 -35755-3 0  9997
2 68062  53.1607  80.9678 0001221 120.0636 240.0519 16.04665161   634
STARLINK-37000          
1 68063U 26041Z   26064.97750751 -.00246685  34367-4 -34595-3 0  9994
2 68063  53.1610  81.2900 0002198   3.6638 356.4411 16.04881912   629
STARLINK-36996          
1 68064U 26041AA  26064.97735909 -.00268635  38628-4 -37423-3 0  9999
2 68064  53.1612  81.2887 0003425 345.9944  14.0993 16.05004029   621
STARLINK-36836          
1 68065U 26041AB  26064.97709723 -.00289896  43131-4 -39890-3 0  9992
2 68065  53.1613  81.2871 0003612 348.8042  11.2910 16.05220580   625
STARLINK-36976          
1 68066U 26041AC  26064.97695408 -.00270054  39039-4 -36858-3 0  9996
2 68066  53.1610  81.2858 0003987 346.1836  13.9087 16.05333814   624
STARLINK-36929          
1 68067U 26041AD  26065.03948703  .00094651  15462-4  13768-3 0  9998
2 68067  53.1610  80.9643 0003123 346.2740  13.8208 16.05126047   633
STARLINK-36990          
1 68068U 26041AE  26064.97680472 -.00310003  47735-4 -42000-3 0  9990
2 68068  53.1611  81.2849 0002801 356.1667   3.9345 16.05492492   628
